267P/LONEOS,e,6.1381,228.6392,114.1200,3.211991,0.1712153,0.61418699,159.0965,02/06.0/2021,2000,g 19.5,4.0
# From MPC 92277
268P/Bernardi,e,16.1512,127.5905,359.9771,4.546739,0.1016609,0.47311344,214.8653,02/06.0/2021,2000,g 14.0,4.0
# From MPC104795
269P/Jedicke,e,7.0713,241.7054,225.9098,7.078489,0.0523351,0.43039979,121.4795,02/06.0/2021,2000,g 10.0,4.0
# From MPC 88332
270P/Gehrels,e,2.9187,222.9713,209.8617,6.667155,0.0572523,0.46721559,160.3761,02/06.0/2021,2000,g  8.0,4.0
# From MPC 92277
271P/van Houten-Lemmon,e,6.8686,9.3041,36.4201,7.045378,0.0527045,0.39385555,145.8397,02/06.0/2021,2000,g 11.0,4.0
# From MPC 81862
272P/NEAT,e,18.0762,109.4660,27.9559,4.455803,0.1047889,0.45424340,304.8522,02/06.0/2021,2000,g 16.0,2.0
# From MPC 82723
273P/Pons-Gambart,e,136.7886,320.4009,20.3209,31.78508,0.0055001,0.97407768,0.0000,12/17.7406/2012,2000,g 11.5,4.0
# From MPC 88332
274P/Tombaugh-Tenagra,e,15.8176,81.3382,38.4969,4.372017,0.1078155,0.43890802,314.0062,02/06.0/2021,2000,g 13.0,4.0
# From MPC 81862
275P/Hermann,e,21.2764,348.7573,174.0803,5.772322,0.0710687,0.71240833,211.0074,02/06.0/2021,2000,g 17.0,4.0
# From MPEC 2020-K19
276P/Vorobjov,e,14.8133,211.4119,199.7948,5.315625,0.0804216,0.26720145,246.6570,02/06.0/2021,2000,g 11.5,4.0
# From MPEC 2021-BE3
277P/LINEAR,e,16.7789,276.3448,152.3172,3.852474,0.1303450,0.50564467,4.9306,02/06.0/2021,2000,g 14.0,4.0
# From MPEC 2020-W26
278P/McNaught,e,6.6851,15.4298,238.0994,3.695971,0.1387111,0.43534881,20.3813,02/06.0/2021,2000,g 14.0,4.0
# From MPC100285
279P/La Sagra,e,5.0523,346.2309,5.7743,3.574743,0.1458266,0.39834100,242.9541,02/06.0/2021,2000,g 14.0,4.0
# From MPC 89013
280P/Larsen,e,11.7753,131.3929,104.8009,4.529222,0.1022512,0.41777467,267.0022,02/06.0/2021,2000,g 12.5,4.0
# From MPC 83145
281P/MOSS,e,4.7196,87.1751,26.7910,4.870844,0.0916849,0.17173907,293.3655,02/06.0/2021,2000,g 11.0,4.0
# From MPC xxxxx
282P/,e,5.8109,9.2947,217.5905,4.243184,0.1127629,0.18903303,330.6406,02/06.0/2021,2000,g 13.5,2.0
# From MPEC 2021-BE3
283P/Spacewatch,e,14.4544,161.1302,22.2587,4.139680,0.1170184,0.48496378,334.9538,02/06.0/2021,2000,g 16.0,2.0
# From MPEC 2020-K19
284P/McNaught,e,11.8597,144.2662,202.5521,3.678698,0.1396892,0.37612565,329.4051,02/06.0/2021,2000,g 13.0,4.0
# From MPC 85339
285P/LINEAR,e,25.0341,185.4960,178.4114,4.508492,0.1029573,0.61828468,287.3616,02/06.0/2021,2000,g 15.0,4.0
# From MPC 90771
286P/Christensen,e,17.0449,283.9612,24.8078,4.109837,0.1182952,0.42533452,305.5193,02/06.0/2021,2000,g 14.0,4.0
# From MPC 96868
287P/Christensen,e,16.3198,139.0443,188.8935,4.166347,0.1158967,0.27082707,258.2272,02/06.0/2021,2000,g 13.5,4.0
# From MPC xxxxx
288P/,e,3.2398,83.1888,280.6140,3.048773,0.1851469,0.20138402,287.7375,02/06.0/2021,2000,g 16.0,2.0
# From MPC118844
289P/Blanpain,e,5.8943,68.8865,9.8741,3.047288,0.1852823,0.68540063,76.5266,02/06.0/2021,2000,g  2.5,4.0
# From MPC 95214
290P/Jager,e,20.2358,302.6848,181.9785,6.197044,0.0638892,0.63245050,162.8706,02/06.0/2021,2000,g 10.5,4.0
# From MPC 89314
291P/NEAT,e,6.3134,238.1135,173.8590,4.519136,0.1025938,0.43577316,275.9539,02/06.0/2021,2000,g 13.0,4.0
# From MPC115887
292P/Li,e,24.2574,90.9884,319.4551,6.108299,0.0652865,0.58805752,167.3856,02/06.0/2021,2000,g 12.5,4.0
# From MPEC 2021-BE3
293P/Spacewatch,e,9.0564,78.4107,41.0562,3.644173,0.1416790,0.41829409,6.9046,02/06.0/2021,2000,g 14.5,4.0
# From MPEC 2020-SI8
294P/LINEAR,e,18.2280,312.5919,235.4763,3.206082,0.1716889,0.59540524,74.4966,02/06.0/2021,2000,g 15.5,4.0
# From MPC 93589
295P/LINEAR,e,21.0733,7.4204,72.9205,5.306564,0.0806276,0.61606238,199.0680,02/06.0/2021,2000,g 12.0,4.0
# From MPEC 2020-SI8
296P/Garradd,e,25.2312,263.6358,350.1221,3.498230,0.1506369,0.47878403,21.2527,02/06.0/2021,2000,g 14.0,4.0
# From MPC102956
297P/Beshore,e,10.3286,97.6594,132.5018,3.442088,0.1543374,0.31918901,2.1810,02/06.0/2021,2000,g 15.0,4.0
# From MPC114609
298P/Christensen,e,7.8703,52.8226,100.6848,3.592351,0.1447558,0.38671160,22.0973,02/06.0/2021,2000,g 15.0,4.0
# From MPC101100
299P/Catalina-PANSTARRS,e,10.4758,271.6255,323.8988,4.384705,0.1073479,0.28164540,233.3604,02/06.0/2021,2000,g 11.5,4.0
# From MPC114609
300P/Catalina,e,5.6756,95.6631,222.8810,2.700039,0.2221514,0.69176874,183.6360,02/06.0/2021,2000,g 16.0,4.0
# From MPC 89014
301P/LINEAR-NEAT,e,10.3414,351.1769,193.7110,5.738495,0.0716980,0.58539558,168.7203,02/06.0/2021,2000,g 13.0,4.0
# From MPEC 2020-HN5
302P/Lemmon-PANSTARRS,e,6.0342,121.7551,208.2192,4.276632,0.1114426,0.23004929,193.9387,02/06.0/2021,2000,g 12.5,4.0
# From MPC 92278
303P/NEAT,e,7.0201,347.9704,356.8721,5.048118,0.0868980,0.51047460,200.2239,02/06.0/2021,2000,g 13.5,4.0
# From MPEC 2020-N08
304P/Ory,e,2.6067,58.9345,335.2312,3.150357,0.1762643,0.60048297,31.3031,02/06.0/2021,2000,g 16.5,4.0
# From MPC101100
305P/Skiff,e,11.6466,240.1220,147.2783,4.644347,0.0984730,0.69311068,224.0275,02/06.0/2021,2000,g 18.0,4.0
# From MPC 92278
306P/LINEAR,e,8.3108,341.3761,0.8304,3.122704,0.1786108,0.59328961,67.8898,02/06.0/2021,2000,g 19.0,4.0
# From MPC 92278
307P/LINEAR,e,4.4335,158.1451,222.1385,5.793536,0.0706787,0.67449481,158.2744,02/06.0/2021,2000,g 15.0,4.0
# From MPC109148
308P/Lagerkvist-Carsenty,e,4.8503,63.0914,333.5967,6.605287,0.0580586,0.36317231,122.1097,02/06.0/2021,2000,g 13.0,2.0
# From MPC 94284
309P/LINEAR,e,17.0232,10.1404,49.9663,4.371470,0.1078358,0.61760962,236.2110,02/06.0/2021,2000,g 15.0,4.0
# From MPC 98566
310P/Hill,e,13.1279,8.9252,31.8389,4.178123,0.1154070,0.42178312,245.6405,02/06.0/2021,2000,g 13.5,4.0
# From MPEC 2021-BE3
311P/PANSTARRS,e,4.9698,279.2277,144.5856,2.188806,0.3043640,0.11546403,36.9977,02/06.0/2021,2000,g 17.0,4.0
# From MPEC 2021-BE3
312P/NEAT,e,19.7684,144.6699,207.5339,3.466107,0.1527359,0.42780730,20.4665,02/06.0/2021,2000,g 16.0,4.0
# From MPEC 2021-BE3
313P/Gibbs,e,10.9831,105.9730,254.6610,3.162024,0.1752897,0.23494419,51.9972,02/06.0/2021,2000,g 15.0,4.0
# From MPC105243
314P/Montani,e,3.9795,267.6166,214.1659,7.271549,0.0502648,0.41604779,79.5044,02/06.0/2021,2000,g  9.5,4.0
# From MPC115888
315P/LONEOS,e,17.7746,68.9824,65.6790,4.939141,0.0897898,0.52178098,137.2982,02/06.0/2021,2000,g 11.0,4.0
# From MPC 92279
316P/LONEOS-Christensen,e,9.8561,246.6876,193.5256,4.357380,0.1083592,0.15818729,210.1170,02/06.0/2021,2000,g 13.5,4.0
# From MPEC 2020-C98
317P/WISE,e,11.9502,275.5166,334.9049,2.965471,0.1930028,0.57050422,25.6344,02/06.0/2021,2000,g 17.5,4.0
# From MPC102103
318P/McNaught-Hartley,e,17.8758,35.6074,313.1504,7.497558,0.0480092,0.67513897,92.7365,02/06.0/2021,2000,g  8.5,6.0
# From MPC 97499
319P/Catalina-McNaught,e,15.0951,111.3774,203.6408,3.567916,0.1462454,0.66660011,298.8077,02/06.0/2021,2000,g 15.0,4.0
# From MPC 96281
320P/McNaught,e,4.9089,295.9302,0.7759,3.094094,0.1810939,0.68576396,3.5962,02/06.0/2021,2000,g 20.5,4.0
# From MPC105243
321P/SOHO,e,20.0677,165.0291,172.7354,2.423314,0.2612701,0.98109301,0.0000,01/17.2815/2020,2000,g 20.0,4.0
# From MPC102103
322P/SOHO,e,11.4627,351.4890,56.9125,2.508070,0.2481388,0.97978975,0.0000,08/31.4540/2019,2000,g 19.0,4.0
# From MPEC 2016-Y36
323P/SOHO,e,5.3387,324.3751,353.0528,2.582005,0.2375574,0.98484278,0.0000,01/17.7618/2021,2000,g 20.0,4.0
# From MPC108598
324P/La Sagra,e,21.4101,270.6357,57.7322,3.097906,0.1807597,0.15475108,343.8691,02/06.0/2021,2000,g 13.0,4.0
# From MPC114609
325P/Yang-Gao,e,16.6963,257.5735,343.6875,3.523977,0.1489891,0.59360070,298.0017,02/06.0/2021,2000,g 14.0,4.0
# From MPC103849
326P/Hill,e,2.4708,99.8122,278.5858,4.063904,0.1203065,0.31755286,232.7190,02/06.0/2021,2000,g 13.5,4.0
# From MPC 97499
327P/Van Ness,e,36.2483,173.9785,185.0274,3.562520,0.1465777,0.56294488,275.9360,02/06.0/2021,2000,g 16.0,4.0
# From MPC109148
328P/LONEOS-Tucker,e,17.6712,341.6285,30.4813,4.195212,0.1147026,0.55193149,214.5176,02/06.0/2021,2000,g 14.5,4.0
# From MPC101101
329P/LINEAR-Catalina,e,21.6682,87.6798,343.5385,5.192081,0.0833090,0.67699792,157.8823,02/06.0/2021,2000,g 13.5,4.0
# From MPC105243
330P/Catalina,e,15.6941,293.0959,188.9813,6.630576,0.0577268,0.54842004,93.7666,02/06.0/2021,2000,g 12.0,4.0
# From MPEC 2021-BE3
331P/Gibbs,e,9.7390,216.7774,183.8142,3.003834,0.1893172,0.04081663,24.4299,02/06.0/2021,2000,g 12.0,4.0
# From MPEC 2016-K18
332P/Ikeya-Murakami,e,9.3799,3.7891,152.3508,3.088896,0.1815512,0.48945145,324.8812,02/06.0/2021,2000,g 18.0,4.0
# From MPEC 2016-EI8
332P-B/Ikeya-Murakami,e,9.3805,3.8028,152.3711,3.082329,0.1821317,0.48970701,359.9699,03/17.0/2016,2000,g 19.0,4.0
# From MPEC 2016-K18
332P-C/Ikeya-Murakami,e,9.3790,3.7895,152.3421,3.088862,0.1815542,0.48945690,324.8948,02/06.0/2021,2000,g 16.5,4.0
# From MPEC 2016-ED0
332P-D/Ikeya-Murakami,e,9.3761,3.7923,152.4393,3.081138,0.1822373,0.48977814,359.9486,03/17.0/2016,2000,g 19.0,4.0
# From MPEC 2016-ED0
332P-E/Ikeya-Murakami,e,9.3774,3.8228,152.2825,3.079877,0.1823493,0.48922008,359.9889,03/17.0/2016,2000,g 21.0,4.0
# From MPEC 2016-ED0
332P-F/Ikeya-Murakami,e,9.5293,3.4757,152.8203,3.163214,0.1751908,0.49918860,359.8501,03/17.0/2016,2000,g 21.0,4.0
# From MPEC 2016-ED0
332P-G/Ikeya-Murakami,e,9.2523,3.6955,154.4000,3.050519,0.1849880,0.49200362,359.9006,03/19.0/2016,2000,g 19.0,4.0
# From MPC100285
332P-H/Ikeya-Murakami,e,9.3795,3.7893,152.3428,3.089045,0.1815381,0.48949202,324.8329,02/06.0/2021,2000,g 19.0,4.0
# From MPEC 2016-ED0
332P-I/Ikeya-Murakami,e,9.3791,3.8048,152.3297,3.081767,0.1821815,0.48955490,359.9360,03/17.0/2016,2000,g 20.5,2.0
# From MPEC 2016-EI8
332P-J/Ikeya-Murakami,e,9.4296,3.6729,152.7712,3.115165,0.1792596,0.49429435,359.8613,03/17.0/2016,2000,g 20.5,2.0
# From MPEC 2020-L06
333P/LINEAR,e,131.9802,115.6255,26.0176,4.218956,0.1137356,0.73675528,201.5970,02/06.0/2021,2000,g 15.0,4.0
# From MPC115888
334P/NEAT,e,20.4475,90.6974,90.0181,6.838304,0.0551165,0.35224709,73.8196,02/06.0/2021,2000,g 10.5,4.0
# From MPC100285
335P/Gibbs,e,7.2931,330.8465,162.2492,3.578406,0.1456028,0.54562880,279.6061,02/06.0/2021,2000,g 17.0,4.0
# From MPC105244
